[{"OBJECT_NAME":"TEVEL2-6","OBJECT_ID":"2025-052F","EPOCH":"2026-03-09T15:35:24.554400","MEAN_MOTION":15.30760889,"ECCENTRICITY":0.0004769,"INCLINATION":97.4016,"RA_OF_ASC_NODE":325.0381,"ARG_OF_PERICENTER":95.6604,"MEAN_ANOMALY":264.5181,"EPHEMERIS_TYPE":0,"CLASSIFICATION_TYPE":"U","NORAD_CAT_ID":63215,"ELEMENT_SET_NO":999,"REV_AT_EPOCH":5486,"BSTAR":0.00070909,"MEAN_MOTION_DOT":0.00021046,"MEAN_MOTION_DDOT":0},{"OBJECT_NAME":"STARLINK-35315","OBJECT_ID":"2025-265AD","EPOCH":"2026-03-08T23:44:14.252640","MEAN_MOTION":15.27594453,"ECCENTRICITY":0.00023914,"INCLINATION":43.0051,"RA_OF_ASC_NODE":282.1148,"ARG_OF_PERICENTER":271.0191,"MEAN_ANOMALY":89.0386,"EPHEMERIS_TYPE":0,"CLASSIFICATION_TYPE":"U","NORAD_CAT_ID":66543,"ELEMENT_SET_NO":999,"REV_AT_EPOCH":1700,"BSTAR":0.0010483897,"MEAN_MOTION_DOT":0.00028713,"MEAN_MOTION_DDOT":0}]
